ONEWEB-0435             
1 51632U 22012L   25040.61336310  .00000106  00000+0  26669-3 0  9996
2 51632  87.8910 134.4460 0002149 116.0664 244.0685 13.10379607144807
ONEWEB-0436             
1 51633U 22012M   25040.61427950  .00000028  00000+0  40037-4 0  9997
2 51633  87.9056 103.9857 0002185 105.1509 254.9864 13.17647414148813
ONEWEB-0438             
1 51634U 22012N   25040.29133008 -.00000517  00000+0 -15169-2 0  9991
2 51634  87.8914 134.5102 0001581 106.9025 253.2276 13.10374429144798
ONEWEB-0439             
1 51635U 22012P   25040.29465338 -.00000365  00000+0 -10831-2 0  9998
2 51635  87.8915 134.4966 0001780 108.5670 251.5650 13.10375806144777
ONEWEB-0442             
1 51636U 22012Q   25040.60667802 -.00000176  00000+0 -48713-3 0  9995
2 51636  87.9061 104.0300 0001478  83.6239 276.5061 13.17649197148809
ONEWEB-0443             
1 51637U 22012R   25040.55015488  .00000035  00000+0  57542-4 0  9990
2 51637  87.9063 104.0537 0001574 107.9170 252.2133 13.17650625148848
ONEWEB-0444             
1 51638U 22012S   25040.51375998 -.00000574  00000+0 -16798-2 0  9998
2 51638  87.8908 134.4630 0001838 112.4075 247.7247 13.10372339144819
ONEWEB-0445             
1 51639U 22012T   25040.61171303  .00000080  00000+0  19400-3 0  9998
2 51639  87.8906 134.4044 0001748 100.4024 259.7300 13.10375299144831
